FENGYUN 1C DEB          
1 30118U 99025RX  17345.94210287  .00000229  00000-0  16763-3 0  9990
2 30118  99.0150  10.4316 0084631 304.9524 122.2487 14.04158503559054
